OBJECT_NAME,OBJECT_ID,EPOCH,MEAN_MOTION,ECCENTRICITY,INCLINATION,RA_OF_ASC_NODE,ARG_OF_PERICENTER,MEAN_ANOMALY,EPHEMERIS_TYPE,CLASSIFICATION_TYPE,NORAD_CAT_ID,ELEMENT_SET_NO,REV_AT_EPOCH,BSTAR,MEAN_MOTION_DOT,MEAN_MOTION_DDOT
STARLINK-5188,2022-136AX,2026-06-04T15:22:18.781824,15.08833998,.0001837,53.1810,303.5555,138.0488,222.0645,0,U,54096,999,20011,.34785705E-4,.265E-5,0
STARLINK-5197,2022-136AY,2026-06-04T15:33:36.233856,15.08830947,.00013719,53.1798,278.6464,73.6589,286.4554,0,U,54097,999,20046,.50186485E-4,.511E-5,0
STARLINK-5217,2022-136AZ,2026-06-04T16:37:58.229184,15.08834240,.00013477,53.1814,303.8550,110.3046,249.8091,0,U,54098,999,20011,.36773343E-4,.297E-5,0
STARLINK-5198,2022-136BA,2026-06-04T16:25:51.625056,15.08838196,.00016135,53.1824,303.1077,59.3696,300.7455,0,U,54099,999,20012,-.19410133E-4,-.597E-5,0
STARLINK-5185,2022-136BB,2026-06-03T15:20:54.864096,15.08834127,.0001032,53.1838,307.9663,75.7348,284.3759,0,U,54100,999,19996,-.17276E-5,-.315E-5,0
STARLINK-5204,2022-136BC,2026-06-03T15:21:38.237760,15.08839738,.0001323,53.1823,293.0109,89.0980,271.0164,0,U,54101,999,20017,.76879E-4,.936E-5,0
STARLINK-5179,2022-136BD,2026-06-04T17:29:32.090496,15.08837977,.00015391,53.1807,303.3630,54.9788,305.1348,0,U,54102,999,20012,.669911E-6,-.277E-5,0
STARLINK-5200,2022-136BE,2026-06-03T15:23:34.588320,15.08832109,.0001225,53.1837,288.0326,100.7128,259.4002,0,U,54103,999,20024,-.12623E-5,-.308E-5,0
STARLINK-5203,2022-136BF,2026-06-03T21:12:38.020032,15.08829715,.0002045,53.1831,271.7279,35.1656,324.9471,0,U,54104,999,20049,.50805E-5,-.207E-5,0
COSMOS 2561,2022-137A,2026-06-04T20:14:46.389408,15.51379533,.0011792,96.9182,215.3086,75.7370,284.5193,0,U,54109,999,20443,.26087E-3,.15312E-3,0
ONEWEB-0490,2022-138A,2026-06-03T11:42:04.796064,13.19726669,.00015846,87.9171,307.6968,93.3842,266.7472,0,U,54113,999,17502,-.24944077E-3,-.87E-6,0
ONEWEB-0492,2022-138B,2026-06-03T23:13:33.089376,13.19717786,.00016244,87.9160,307.6033,99.5746,260.5570,0,U,54114,999,17509,-.198417E-2,-.781E-5,0
ONEWEB-0495,2022-138C,2026-06-03T11:46:37.648128,13.19727525,.0001203,87.9159,307.7010,86.4008,273.7262,0,U,54115,999,17501,-.47461E-4,-.6E-7,0
ONEWEB-0497,2022-138D,2026-06-03T12:04:49.427904,13.19727040,.000173,87.9163,307.6896,95.1163,265.0167,0,U,54116,999,17500,.31794E-4,.26E-6,0
ONEWEB-0499,2022-138E,2026-06-03T11:40:57.817920,13.19725818,.00015265,87.9149,307.7032,87.1934,272.9373,0,U,54117,999,17501,.36810188E-3,.16E-5,0
ONEWEB-0500,2022-138F,2026-06-03T11:44:20.666112,13.19725612,.0001829,87.9180,307.6978,108.9232,251.2100,0,U,54118,999,17502,.12724E-2,.522E-5,0
ONEWEB-0501,2022-138G,2026-06-03T23:22:36.157440,13.19748402,.00022811,87.9167,307.5987,97.5698,262.5694,0,U,54119,999,17506,.63303379E-2,.2549E-4,0
ONEWEB-0502,2022-138H,2026-06-03T23:02:08.136096,13.19727136,.00016783,87.9168,307.5900,87.9732,272.1593,0,U,54120,999,17508,-.59184567E-4,-.11E-6,0
ONEWEB-0503,2022-138J,2026-06-01T10:43:25.356864,13.19727739,.00020224,87.9166,308.0965,90.2839,269.8526,0,U,54121,999,17474,.24711561E-3,.112E-5,0
ONEWEB-0504,2022-138K,2026-06-03T11:32:59.220672,13.19726137,.00016857,87.9166,307.6964,89.8092,270.3233,0,U,54122,999,17502,.83114807E-4,.46E-6,0
ONEWEB-0505,2022-138L,2026-06-03T07:50:06.029952,13.19725389,.000153,87.9166,307.7277,85.5692,274.5616,0,U,54123,999,17498,-.8478349E-4,-.21E-6,0
ONEWEB-0506,2022-138M,2026-06-03T23:36:16.887456,13.19726354,.00016097,87.9167,307.5941,89.5862,270.5455,0,U,54124,999,17506,.43940049E-4,.31E-6,0
ONEWEB-0507,2022-138N,2026-06-03T11:21:37.015776,13.19726002,.00016153,87.9158,307.7091,92.8688,267.2630,0,U,54125,999,17504,.15128062E-4,.19E-6,0
ONEWEB-0508,2022-138P,2026-06-03T11:17:02.837472,13.19727524,.0001373,87.9157,307.7093,94.2968,265.8322,0,U,54126,999,17502,.20997336E-3,.97E-6,0
ONEWEB-0509,2022-138Q,2026-06-03T23:24:54.293760,13.19726718,.0001706,87.9170,307.5967,93.6049,266.5279,0,U,54127,999,17506,-.53415741E-4,-.8E-7,0
ONEWEB-0510,2022-138R,2026-06-04T16:59:23.265024,13.20774148,.00026717,87.9220,276.9202,121.4341,238.7054,0,U,54128,999,17763,.50383104E-3,.218E-5,0
ONEWEB-0511,2022-138S,2026-06-03T23:20:22.259904,13.19725179,.00018965,87.9165,307.6007,86.0395,274.0954,0,U,54129,999,17509,-.49713562E-4,-.7E-7,0
ONEWEB-0512,2022-138T,2026-06-03T23:08:58.249248,13.19724962,.00015069,87.9161,307.6083,82.8785,277.2519,0,U,54130,999,17506,.28025282E-3,.125E-5,0
ONEWEB-0513,2022-138U,2026-06-03T23:24:53.919648,13.20267491,.00016992,87.9165,307.5514,63.9630,296.1677,0,U,54131,999,17497,-.12781701E-3,-.39E-6,0
ONEWEB-0514,2022-138V,2026-06-03T10:47:29.480064,13.19726766,.00019506,87.9168,307.7031,96.0459,264.0896,0,U,54132,999,17501,.10835806E-3,.56E-6,0
