STARLINK-5188           
1 54096U 22136AX  26155.64049516  .00000265  00000+0  34786-4 0  9996
2 54096  53.1810 303.5555 0001837 138.0488 222.0645 15.08833998200110
STARLINK-5197           
1 54097U 22136AY  26155.64833604  .00000511  00000+0  50186-4 0  9992
2 54097  53.1798 278.6464 0001371  73.6589 286.4554 15.08830947200468
STARLINK-5217           
1 54098U 22136AZ  26155.69303506  .00000297  00000+0  36773-4 0  9998
2 54098  53.1814 303.8550 0001347 110.3046 249.8091 15.08834240200116
STARLINK-5198           
1 54099U 22136BA  26155.68462529 -.00000597  00000+0 -19410-4 0  9993
2 54099  53.1824 303.1077 0001613  59.3696 300.7455 15.08838196200120
STARLINK-5185           
1 54100U 22136BB  26154.63952389 -.00000315  00000+0 -17276-5 0  9995
2 54100  53.1838 307.9663 0001032  75.7348 284.3759 15.08834127199965
STARLINK-5204           
1 54101U 22136BC  26154.64002590  .00000936  00000+0  76879-4 0  9997
2 54101  53.1823 293.0109 0001323  89.0980 271.0164 15.08839738200175
STARLINK-5179           
1 54102U 22136BD  26155.72884364 -.00000277  00000+0  66991-6 0  9990
2 54102  53.1807 303.3630 0001539  54.9788 305.1348 15.08837977200129
STARLINK-5200           
1 54103U 22136BE  26154.64137255 -.00000308  00000+0 -12623-5 0  9999
2 54103  53.1837 288.0326 0001225 100.7128 259.4002 15.08832109200247
STARLINK-5203           
1 54104U 22136BF  26154.88377338 -.00000207  00000+0  50805-5 0  9995
2 54104  53.1831 271.7279 0002045  35.1656 324.9471 15.08829715200490
COSMOS 2561             
1 54109U 22137A   26155.84359247  .00015312  00000+0  26087-3 0  9992
2 54109  96.9182 215.3086 0011792  75.7370 284.5193 15.51379533204437
ONEWEB-0490             
1 54113U 22138A   26154.48755551 -.00000087  00000+0 -24944-3 0  9990
2 54113  87.9171 307.6968 0001584  93.3842 266.7472 13.19726669175024
ONEWEB-0492             
1 54114U 22138B   26154.96774409 -.00000781  00000+0 -19842-2 0  9998
2 54114  87.9160 307.6033 0001624  99.5746 260.5570 13.19717786175090
ONEWEB-0495             
1 54115U 22138C   26154.49071352 -.00000006  00000+0 -47461-4 0  9994
2 54115  87.9159 307.7010 0001203  86.4008 273.7262 13.19727525175012
ONEWEB-0497             
1 54116U 22138D   26154.50334986  .00000026  00000+0  31794-4 0  9994
2 54116  87.9163 307.6896 0001730  95.1163 265.0167 13.19727040175002
ONEWEB-0499             
1 54117U 22138E   26154.48678030  .00000160  00000+0  36810-3 0  9995
2 54117  87.9149 307.7032 0001526  87.1934 272.9373 13.19725818175018
ONEWEB-0500             
1 54118U 22138F   26154.48912808  .00000522  00000+0  12724-2 0  9999
2 54118  87.9180 307.6978 0001829 108.9232 251.2100 13.19725612175022
ONEWEB-0501             
1 54119U 22138G   26154.97402960  .00002549  00000+0  63303-2 0  9997
2 54119  87.9167 307.5987 0002281  97.5698 262.5694 13.19748402175068
ONEWEB-0502             
1 54120U 22138H   26154.95981639 -.00000011  00000+0 -59185-4 0  9991
2 54120  87.9168 307.5900 0001678  87.9732 272.1593 13.19727136175085
ONEWEB-0503             
1 54121U 22138J   26152.44682126  .00000112  00000+0  24712-3 0  9990
2 54121  87.9166 308.0965 0002022  90.2839 269.8526 13.19727739174740
ONEWEB-0504             
1 54122U 22138K   26154.48124098  .00000046  00000+0  83115-4 0  9995
2 54122  87.9166 307.6964 0001685  89.8092 270.3233 13.19726137175029
ONEWEB-0505             
1 54123U 22138L   26154.32645868 -.00000021  00000+0 -84783-4 0  9999
2 54123  87.9166 307.7277 0001530  85.5692 274.5616 13.19725389174989
ONEWEB-0506             
1 54124U 22138M   26154.98352879  .00000031  00000+0  43940-4 0  9998
2 54124  87.9167 307.5941 0001609  89.5862 270.5455 13.19726354175067
ONEWEB-0507             
1 54125U 22138N   26154.47334509  .00000019  00000+0  15128-4 0  9996
2 54125  87.9158 307.7091 0001615  92.8688 267.2630 13.19726002175042
ONEWEB-0508             
1 54126U 22138P   26154.47017173  .00000097  00000+0  20997-3 0  9997
2 54126  87.9157 307.7093 0001373  94.2968 265.8322 13.19727524175022
ONEWEB-0509             
1 54127U 22138Q   26154.97562840 -.00000008  00000+0 -53416-4 0  9996
2 54127  87.9170 307.5967 0001706  93.6049 266.5279 13.19726718175066
ONEWEB-0510             
1 54128U 22138R   26155.70790816  .00000218  00000+0  50383-3 0  9995
2 54128  87.9220 276.9202 0002671 121.4341 238.7054 13.20774148177630
ONEWEB-0511             
1 54129U 22138S   26154.97247986 -.00000007  00000+0 -49714-4 0  9994
2 54129  87.9165 307.6007 0001896  86.0395 274.0954 13.19725179175095
ONEWEB-0512             
1 54130U 22138T   26154.96456307  .00000125  00000+0  28025-3 0  9994
2 54130  87.9161 307.6083 0001506  82.8785 277.2519 13.19724962175060
ONEWEB-0513             
1 54131U 22138U   26154.97562407 -.00000039  00000+0 -12782-3 0  9994
2 54131  87.9165 307.5514 0001699  63.9630 296.1677 13.20267491174970
ONEWEB-0514             
1 54132U 22138V   26154.44964676  .00000056  00000+0  10836-3 0  9996
2 54132  87.9168 307.7031 0001950  96.0459 264.0896 13.19726766175012
